[
    {
        "Altitude(m)": 571642.7555355361,
        "Argument of Periapsis(deg)": 0.026491964442854003,
        "Eccentricity": 0.0,
        "Inclination(deg)": 53.0,
        "Latitude(deg)": -52.628895539355035,
        "Longitude(deg)": 112.92747457541141,
        "Mean Anomaly(deg)": -83.26992852968965,
        "RAAN(deg)": 294.9605734741121,
        "Satellite Name": "Starlink Shell 1 1312",
        "Satellite Number": 1312,
        "Semi-Major Axis(m)": 6931778.249405717,
        "Time(s)": 760
    },
    {
        "Altitude(m)": 571603.7687650105,
        "Argument of Periapsis(deg)": 0.02684054292236524,
        "Eccentricity": 0.0,
        "Inclination(deg)": 53.0,
        "Latitude(deg)": -52.52839540578826,
        "Longitude(deg)": 113.89803629307329,
        "Mean Anomaly(deg)": -82.64309732613289,
        "RAAN(deg)": 294.9600547040346,
        "Satellite Name": "Starlink Shell 1 1312",
        "Satellite Number": 1312,
        "Semi-Major Axis(m)": 6931778.249405717,
        "Time(s)": 770
    },
    {
        "Altitude(m)": 571561.3968035503,
        "Argument of Periapsis(deg)": 0.027189121401876473,
        "Eccentricity": 0.0,
        "Inclination(deg)": 53.0,
        "Latitude(deg)": -52.4192878398368,
        "Longitude(deg)": 114.8638008995147,
        "Mean Anomaly(deg)": -82.01626612257617,
        "RAAN(deg)": 294.9595359339571,
        "Satellite Name": "Starlink Shell 1 1312",
        "Satellite Number": 1312,
        "Semi-Major Axis(m)": 6931778.249405717,
        "Time(s)": 780
    },
    {
        "Altitude(m)": 571515.656531001,
        "Argument of Periapsis(deg)": 0.02753769988138771,
        "Eccentricity": 0.0,
        "Inclination(deg)": 53.0,
        "Latitude(deg)": -52.30164817940239,
        "Longitude(deg)": 115.82442245838942,
        "Mean Anomaly(deg)": -81.38943491901951,
        "RAAN(deg)": 294.9590171638797,
        "Satellite Name": "Starlink Shell 1 1312",
        "Satellite Number": 1312,
        "Semi-Major Axis(m)": 6931778.249405717,
        "Time(s)": 790
    },
    {
        "Altitude(m)": 571466.5661681456,
        "Argument of Periapsis(deg)": 0.02788627836089895,
        "Eccentricity": 0.0,
        "Inclination(deg)": 53.0,
        "Latitude(deg)": -52.17555668704527,
        "Longitude(deg)": 116.77956820706554,
        "Mean Anomaly(deg)": -80.76260371546282,
        "RAAN(deg)": 294.9584983938022,
        "Satellite Name": "Starlink Shell 1 1312",
        "Satellite Number": 1312,
        "Semi-Major Axis(m)": 6931778.249405717,
        "Time(s)": 800
    },
    {
        "Altitude(m)": 571414.1452688065,
        "Argument of Periapsis(deg)": 0.02823485684041019,
        "Eccentricity": 0.0,
        "Inclination(deg)": 53.0,
        "Latitude(deg)": -52.04109829527054,
        "Longitude(deg)": 117.7289196707188,
        "Mean Anomaly(deg)": -80.13577251190597,
        "RAAN(deg)": 294.9579796237247,
        "Satellite Name": "Starlink Shell 1 1312",
        "Satellite Number": 1312,
        "Semi-Major Axis(m)": 6931778.249405717,
        "Time(s)": 810
    },
    {
        "Altitude(m)": 571358.414711385,
        "Argument of Periapsis(deg)": 0.028583435319921423,
        "Eccentricity": 0.0,
        "Inclination(deg)": 53.0,
        "Latitude(deg)": -51.89836234314287,
        "Longitude(deg)": 118.67217369028326,
        "Mean Anomaly(deg)": -79.5089413083493,
        "RAAN(deg)": 294.9574608536472,
        "Satellite Name": "Starlink Shell 1 1312",
        "Satellite Number": 1312,
        "Semi-Major Axis(m)": 6931778.249405717,
        "Time(s)": 820
    },
    {
        "Altitude(m)": 571299.3966898263,
        "Argument of Periapsis(deg)": 0.028932013799432665,
        "Eccentricity": 0.0,
        "Inclination(deg)": 53.0,
        "Latitude(deg)": -51.74744230584723,
        "Longitude(deg)": 119.60904185245457,
        "Mean Anomaly(deg)": -78.88211010479264,
        "RAAN(deg)": 294.95694208356974,
        "Satellite Name": "Starlink Shell 1 1312",
        "Satellite Number": 1312,
        "Semi-Major Axis(m)": 6931778.249405717,
        "Time(s)": 830
    },
    {
        "Altitude(m)": 571237.1147039997,
        "Argument of Periapsis(deg)": 0.029280592278943897,
        "Eccentricity": 0.0,
        "Inclination(deg)": 53.0,
        "Latitude(deg)": -51.58843551900446,
        "Longitude(deg)": 120.53925134755445,
        "Mean Anomaly(deg)": -78.25527890123593,
        "RAAN(deg)": 294.95642331349234,
        "Satellite Name": "Starlink Shell 1 1312",
        "Satellite Number": 1312,
        "Semi-Major Axis(m)": 6931778.249405717,
        "Time(s)": 840
    },
    {
        "Altitude(m)": 571171.5935495225,
        "Argument of Periapsis(deg)": 0.029629170758455132,
        "Eccentricity": 0.0,
        "Inclination(deg)": 53.0,
        "Latitude(deg)": -51.42144289944043,
        "Longitude(deg)": 121.46254574382735,
        "Mean Anomaly(deg)": -77.62844769767915,
        "RAAN(deg)": 294.9559045434148,
        "Satellite Name": "Starlink Shell 1 1312",
        "Satellite Number": 1312,
        "Semi-Major Axis(m)": 6931778.249405717,
        "Time(s)": 850
    },
    {
        "Altitude(m)": 571102.8593069906,
        "Argument of Periapsis(deg)": 0.02997774923796637,
        "Eccentricity": 0.0,
        "Inclination(deg)": 53.0,
        "Latitude(deg)": -51.24656866406128,
        "Longitude(deg)": 122.37868399927012,
        "Mean Anomaly(deg)": -77.00161649412244,
        "RAAN(deg)": 294.95538577333735,
        "Satellite Name": "Starlink Shell 1 1312",
        "Satellite Number": 1312,
        "Semi-Major Axis(m)": 6931778.249405717,
        "Time(s)": 860
    },
    {
        "Altitude(m)": 571030.9393307088,
        "Argument of Periapsis(deg)": 0.030326327717477602,
        "Eccentricity": 0.0,
        "Inclination(deg)": 53.0,
        "Latitude(deg)": -51.06392004842168,
        "Longitude(deg)": 123.2874419161242,
        "Mean Anomaly(deg)": -76.37478529056573,
        "RAAN(deg)": 294.9548670032599,
        "Satellite Name": "Starlink Shell 1 1312",
        "Satellite Number": 1312,
        "Semi-Major Axis(m)": 6931778.249405717,
        "Time(s)": 870
    },
    {
        "Altitude(m)": 570955.8622367883,
        "Argument of Periapsis(deg)": 0.030674906196988847,
        "Eccentricity": 0.0,
        "Inclination(deg)": 53.0,
        "Latitude(deg)": -50.87360702648411,
        "Longitude(deg)": 124.1886109984092,
        "Mean Anomaly(deg)": -75.74795408700906,
        "RAAN(deg)": 294.95434823318243,
        "Satellite Name": "Starlink Shell 1 1312",
        "Satellite Number": 1312,
        "Semi-Major Axis(m)": 6931778.249405717,
        "Time(s)": 880
    },
    {
        "Altitude(m)": 570877.6578907447,
        "Argument of Periapsis(deg)": 0.031023484676500086,
        "Eccentricity": 0.0,
        "Inclination(deg)": 53.0,
        "Latitude(deg)": -50.67574203297991,
        "Longitude(deg)": 125.08199891869249,
        "Mean Anomaly(deg)": -75.12112288345229,
        "RAAN(deg)": 294.9538294631049,
        "Satellite Name": "Starlink Shell 1 1312",
        "Satellite Number": 1312,
        "Semi-Major Axis(m)": 6931778.249405717,
        "Time(s)": 890
    },
    {
        "Altitude(m)": 570796.3573945338,
        "Argument of Periapsis(deg)": 0.03137206315601132,
        "Eccentricity": 0.0,
        "Inclination(deg)": 53.0,
        "Latitude(deg)": -50.47043968967909,
        "Longitude(deg)": 125.96742991730808,
        "Mean Anomaly(deg)": -74.49429167989567,
        "RAAN(deg)": 294.95331069302745,
        "Satellite Name": "Starlink Shell 1 1312",
        "Satellite Number": 1312,
        "Semi-Major Axis(m)": 6931778.249405717,
        "Time(s)": 900
    },
    {
        "Altitude(m)": 570711.9930730442,
        "Argument of Periapsis(deg)": 0.03172064163552255,
        "Eccentricity": 0.0,
        "Inclination(deg)": 53.0,
        "Latitude(deg)": -50.25781653676556,
        "Longitude(deg)": 126.84474362567472,
        "Mean Anomaly(deg)": -73.86746047633898,
        "RAAN(deg)": 294.95279192295,
        "Satellite Name": "Starlink Shell 1 1312",
        "Satellite Number": 1312,
        "Semi-Major Axis(m)": 6931778.249405717,
        "Time(s)": 910
    },
    {
        "Altitude(m)": 570624.5984600482,
        "Argument of Periapsis(deg)": 0.0320692201150338,
        "Eccentricity": 0.0,
        "Inclination(deg)": 53.0,
        "Latitude(deg)": -50.03799077040773,
        "Longitude(deg)": 127.71379534422312,
        "Mean Anomaly(deg)": -73.2406292727821,
        "RAAN(deg)": 294.9522731528725,
        "Satellite Name": "Starlink Shell 1 1312",
        "Satellite Number": 1312,
        "Semi-Major Axis(m)": 6931778.249405717,
        "Time(s)": 920
    },
    {
        "Altitude(m)": 570534.2082836304,
        "Argument of Periapsis(deg)": 0.032417798594545036,
        "Eccentricity": 0.0,
        "Inclination(deg)": 53.0,
        "Latitude(deg)": -49.811081987495086,
        "Longitude(deg)": 128.57445626701065,
        "Mean Anomaly(deg)": -72.61379806922548,
        "RAAN(deg)": 294.95175438279506,
        "Satellite Name": "Starlink Shell 1 1312",
        "Satellite Number": 1312,
        "Semi-Major Axis(m)": 6931778.249405717,
        "Time(s)": 930
    },
    {
        "Altitude(m)": 570440.8584510838,
        "Argument of Periapsis(deg)": 0.03276637707405627,
        "Eccentricity": 0.0,
        "Inclination(deg)": 53.0,
        "Latitude(deg)": -49.57721093839334,
        "Longitude(deg)": 129.42661214521493,
        "Mean Anomaly(deg)": -71.9869668656688,
        "RAAN(deg)": 294.95123561271754,
        "Satellite Name": "Starlink Shell 1 1312",
        "Satellite Number": 1312,
        "Semi-Major Axis(m)": 6931778.249405717,
        "Time(s)": 940
    }
]